CCSDS_OMM_VERS = 2.0
CREATION_DATE  = 
ORIGINATOR     = 

OBJECT_NAME    = CZ-2C R/B
OBJECT_ID      = 2022-058K
CENTER_NAME    = EARTH
REF_FRAME      = TEME
TIME_SYSTEM    = UTC
MEAN_ELEMENT_THEORY = SGP/SGP4

EPOCH          = 2025-11-23T22:56:59.337312
MEAN_MOTION    = 15.47184264
ECCENTRICITY   = .004758
INCLINATION    = 50.1889
RA_OF_ASC_NODE = 139.2446
ARG_OF_PERICENTER = 120.9000
MEAN_ANOMALY   = 239.6659

EPHEMERIS_TYPE = 0
CLASSIFICATION_TYPE = U
NORAD_CAT_ID   = 52794
ELEMENT_SET_NO = 999
REV_AT_EPOCH   = 19372
BSTAR          = .65581E-3
MEAN_MOTION_DOT = .35183E-3
MEAN_MOTION_DDOT = 0

CCSDS_OMM_VERS = 2.0
CREATION_DATE  = 
ORIGINATOR     = 

OBJECT_NAME    = CZ-2C R/B
OBJECT_ID      = 2022-132E
CENTER_NAME    = EARTH
REF_FRAME      = TEME
TIME_SYSTEM    = UTC
MEAN_ELEMENT_THEORY = SGP/SGP4

EPOCH          = 2025-11-23T23:55:18.835392
MEAN_MOTION    = 15.53275327
ECCENTRICITY   = .0023836
INCLINATION    = 97.2946
RA_OF_ASC_NODE = 323.8603
ARG_OF_PERICENTER = 118.1426
MEAN_ANOMALY   = 242.2240

EPHEMERIS_TYPE = 0
CLASSIFICATION_TYPE = U
NORAD_CAT_ID   = 54039
ELEMENT_SET_NO = 999
REV_AT_EPOCH   = 17392
BSTAR          = .52805E-3
MEAN_MOTION_DOT = .3365E-3
MEAN_MOTION_DDOT = 0

CCSDS_OMM_VERS = 2.0
CREATION_DATE  = 
ORIGINATOR     = 

OBJECT_NAME    = GSLV R/B
OBJECT_ID      = 2022-138AN
CENTER_NAME    = EARTH
REF_FRAME      = TEME
TIME_SYSTEM    = UTC
MEAN_ELEMENT_THEORY = SGP/SGP4

EPOCH          = 2025-11-24T04:39:32.741280
MEAN_MOTION    = 14.95990048
ECCENTRICITY   = .0021879
INCLINATION    = 87.3842
RA_OF_ASC_NODE = 201.6822
ARG_OF_PERICENTER = 168.1854
MEAN_ANOMALY   = 191.9895

EPHEMERIS_TYPE = 0
CLASSIFICATION_TYPE = U
NORAD_CAT_ID   = 54149
ELEMENT_SET_NO = 999
REV_AT_EPOCH   = 16815
BSTAR          = .28911E-3
MEAN_MOTION_DOT = .3283E-4
MEAN_MOTION_DDOT = 0

CCSDS_OMM_VERS = 2.0
CREATION_DATE  = 
ORIGINATOR     = 

OBJECT_NAME    = XRISM
OBJECT_ID      = 2023-137A
CENTER_NAME    = EARTH
REF_FRAME      = TEME
TIME_SYSTEM    = UTC
MEAN_ELEMENT_THEORY = SGP/SGP4

EPOCH          = 2025-11-24T04:42:01.218816
MEAN_MOTION    = 15.10089534
ECCENTRICITY   = .0007626
INCLINATION    = 31.0019
RA_OF_ASC_NODE = 245.2506
ARG_OF_PERICENTER = 56.3823
MEAN_ANOMALY   = 303.7542

EPHEMERIS_TYPE = 0
CLASSIFICATION_TYPE = U
NORAD_CAT_ID   = 57800
ELEMENT_SET_NO = 999
REV_AT_EPOCH   = 12182
BSTAR          = .38883E-3
MEAN_MOTION_DOT = .6589E-4
MEAN_MOTION_DDOT = 0

CCSDS_OMM_VERS = 2.0
CREATION_DATE  = 
ORIGINATOR     = 

OBJECT_NAME    = ACS3
OBJECT_ID      = 2024-077B
CENTER_NAME    = EARTH
REF_FRAME      = TEME
TIME_SYSTEM    = UTC
MEAN_ELEMENT_THEORY = SGP/SGP4

EPOCH          = 2025-11-23T21:30:22.332384
MEAN_MOTION    = 13.84187802
ECCENTRICITY   = .0071147
INCLINATION    = 97.2919
RA_OF_ASC_NODE = 287.6952
ARG_OF_PERICENTER = 12.6543
MEAN_ANOMALY   = 347.6383

EPHEMERIS_TYPE = 0
CLASSIFICATION_TYPE = U
NORAD_CAT_ID   = 59588
ELEMENT_SET_NO = 999
REV_AT_EPOCH   = 7953
BSTAR          = .20063E-2
MEAN_MOTION_DOT = .2252E-4
MEAN_MOTION_DDOT = 0

