CZ-2C R/B               
1 52794U 22058K   25327.95624233  .00035183  00000+0  65581-3 0  9994
2 52794  50.1889 139.2446 0047580 120.9000 239.6659 15.47184264193729
CZ-2C R/B               
1 54039U 22132E   25327.99674578  .00033650  00000+0  52805-3 0  9994
2 54039  97.2946 323.8603 0023835 118.1426 242.2240 15.53275327173927
GSLV R/B                
1 54149U 22138AN  25328.19412895  .00003283  00000+0  28911-3 0  9997
2 54149  87.3842 201.6822 0021879 168.1854 191.9895 14.95990048168150
XRISM                   
1 57800U 23137A   25328.19584745  .00006589  00000+0  38883-3 0  9999
2 57800  31.0019 245.2506 0007626  56.3823 303.7542 15.10089534121822
ACS3                    
1 59588U 24077B   25327.89609181  .00002252  00000+0  20063-2 0  9999
2 59588  97.2919 287.6952 0071146  12.6543 347.6383 13.84187802 79533
